{"type": "FeatureCollection", "features": [ {"type": "Feature", "properties": {"norad_id": 64202, "name": "GPS BIII-8  (PRN 21)", "group": "gnss", "lat": 47.351588576148316, "lon": 87.8181928938886, "alt_km": 20183.47411677781, "timestamp": "2025-12-13T16:48:32.955086+00:00", "meta": {"OBJECT_NAME": "GPS BIII-8  (PRN 21)", "OBJECT_ID": "2025-116A", "EPOCH": "2025-12-12T15:31:54.991200", "MEAN_MOTION": 2.00558315, "ECCENTRICITY": 0.00055942, "INCLINATION": 55.1057, "RA_OF_ASC_NODE": 38.6443, "ARG_OF_PERICENTER": 307.9268, "MEAN_ANOMALY": 75.3197, "EPHEMERIS_TYPE": 0, "CLASSIFICATION_TYPE": "U", "NORAD_CAT_ID": 64202, "ELEMENT_SET_NO": 999, "REV_AT_EPOCH": 413, "BSTAR": 0, "MEAN_MOTION_DOT": -9.8e-07, "MEAN_MOTION_DDOT": 0}, "tle": {"line1": "1 64202U 25116A   25346.64716425 -.00000098  00000+0  00000+0 0  9990", "line2": "2 64202  55.1057  38.6443 0005594 307.9268  75.3197  2.00558315  4134"}}, "geometry": {"type": "Point", "coordinates": [87.8181928938886, 47.351588576148316]}}, {"type": "Feature", "properties": {"norad_id": 65590, "name": "COSMOS 2596 (708K)", "group": "gnss", "lat": 47.66239766903619, "lon": -7.369564165804859, "alt_km": 19136.191490020676, "timestamp": "2025-12-13T16:48:32.955097+00:00", "meta": {"OBJECT_NAME": "COSMOS 2596 (708K)", "OBJECT_ID": "2025-206B", "EPOCH": "2025-12-10T13:06:28.122048", "MEAN_MOTION": 2.13100337, "ECCENTRICITY": 0.00140136, "INCLINATION": 64.7453, "RA_OF_ASC_NODE": 321.5499, "ARG_OF_PERICENTER": 305.8933, "MEAN_ANOMALY": 208.9804, "EPHEMERIS_TYPE": 0, "CLASSIFICATION_TYPE": "U", "NORAD_CAT_ID": 65590, "ELEMENT_SET_NO": 999, "REV_AT_EPOCH": 189, "BSTAR": 0, "MEAN_MOTION_DOT": -5.2e-07, "MEAN_MOTION_DDOT": 0}, "tle": {"line1": "1 65590U 25206B   25344.54615882 -.00000052  00000+0  00000+0 0  9993", "line2": "2 65590  64.7453 321.5499 0014013 305.8933 208.9804  2.13100337  1898"}}, "geometry": {"type": "Point", "coordinates": [-7.369564165804859, 47.66239766903619]}}]}